NORAD_CAT_ID,OBJECT_NAME,OBJECT_TYPE,EPOCH,MEAN_MOTION,ECCENTRICITY,INCLINATION,RA_OF_ASC_NODE,ARG_OF_PERICENTER,MEAN_ANOMALY,BSTAR,MEAN_MOTION_DOT,MEAN_MOTION_DDOT,TLE_LINE0,TLE_LINE1,TLE_LINE2,SEMIMAJOR_AXIS,PERIOD,APOGEE,PERIGEE,DECAYED
55300.0,STARLINK-5308,PAYLOAD,2023-02-15 06:10:02,15.69908496,0.0003241,70.0004,353.7687,270.3771,89.7054,-3.8704e-05,-4.861e-05,0.0,0 STARLINK-5308,1 55300U 23010AH  23046.25697376 -.00004861  00000-0 -38704-4 0  9996,2 55300  70.0004 353.7687 0003241 270.3771  89.7054 15.69908496  4703,6737.296,91.725,361.344,356.977,0.0
55300.0,STARLINK-5308,PAYLOAD,2023-02-15 13:48:47,15.69929141,0.0003905,70.0,352.8725,269.4217,90.6531,2.843e-05,3.208e-05,0.0,0 STARLINK-5308,1 55300U 23010AH  23046.57554986  .00003208  00000-0  28430-4 0  9997,2 55300  70.0000 352.8725 0003905 269.4217  90.6531 15.69929141  4759,6737.237,91.724,361.733,356.471,0.0
55300.0,STARLINK-5308,PAYLOAD,2023-02-15 21:27:32,15.69941212,0.0003375,69.9999,351.9769,263.2511,96.8301,6.5091e-05,7.626e-05,0.0,0 STARLINK-5308,1 55300U 23010AH  23046.89413143  .00007626  00000-0  65091-4 0  9993,2 55300  69.9999 351.9769 0003375 263.2511  96.8301 15.69941212  5118,6737.202,91.723,361.341,356.793,0.0
55300.0,STARLINK-5308,PAYLOAD,2023-02-16 08:09:49,15.69918757,0.0003249,70.0004,350.7231,271.6681,88.4142,-2.2487e-05,-2.915e-05,0.0,0 STARLINK-5308,1 55300U 23010AH  23047.34015234 -.00002915  00000-0 -22487-4 0  9993,2 55300  70.0004 350.7231 0003249 271.6681  88.4142 15.69918757  4870,6737.266,91.724,361.32,356.942,0.0
55300.0,STARLINK-5308,PAYLOAD,2023-02-16 12:45:05,15.6989565,0.0003054,70.0004,350.1862,280.0425,80.0426,-7.9405e-05,-9.737e-05,0.0,0 STARLINK-5308,1 55300U 23010AH  23047.53131273 -.00009737  00000-0 -79405-4 0  9997,2 55300  70.0004 350.1862 0003054 280.0425  80.0426 15.69895650  5216,6737.333,91.726,361.255,357.14,0.0
55300.0,STARLINK-5308,PAYLOAD,2023-02-16 14:16:50,15.69898295,0.00033,70.0003,350.0067,268.6396,91.4422,-7.1413e-05,-8.781e-05,0.0,0 STARLINK-5308,1 55300U 23010AH  23047.59502786 -.00008781  00000-0 -71413-4 0  9993,2 55300  70.0003 350.0067 0003300 268.6396  91.4422 15.69898295  4910,6737.325,91.726,361.413,356.967,0.0
55300.0,STARLINK-5308,PAYLOAD,2023-02-16 21:55:36,15.6990505,0.0003201,70.0004,349.1113,272.5115,87.5715,-3.1353e-05,-3.978e-05,0.0,0 STARLINK-5308,1 55300U 23010AH  23047.91361353 -.00003978  00000-0 -31353-4 0  9994,2 55300  70.0004 349.1113 0003201 272.5115  87.5715 15.69905050  5274,6737.306,91.725,361.327,357.014,0.0
55300.0,STARLINK-5308,PAYLOAD,2023-02-16 23:27:20,15.6994046,0.0003206,70.0006,348.9313,267.5012,92.5817,7.1039e-05,8.343e-05,0.0,0 STARLINK-5308,1 55300U 23010AH  23047.97731732  .00008343  00000-0  71039-4 0  9996,2 55300  70.0006 348.9313 0003206 267.5012  92.5817 15.69940460  4979,6737.204,91.723,361.229,356.909,0.0
55300.0,STARLINK-5308,PAYLOAD,2023-02-17 05:34:21,15.69904494,0.0003287,70.0007,348.2148,273.9521,86.1299,-5.4316e-05,-6.733e-05,0.0,0 STARLINK-5308,1 55300U 23010AH  23048.23219222 -.00006733  00000-0 -54316-4 0  9993,2 55300  70.0007 348.2148 0003287 273.9521  86.1299 15.69904494  5010,6737.307,91.725,361.387,356.958,0.0
55300.0,STARLINK-5308,PAYLOAD,2023-02-17 13:13:07,15.69894062,0.0003433,70.0008,347.319,271.5067,88.5735,-7.4539e-05,-9.155e-05,0.0,0 STARLINK-5308,1 55300U 23010AH  23048.55078124 -.00009155  00000-0 -74539-4 0  9992,2 55300  70.0008 347.3190 0003433 271.5067  88.5735 15.69894062  5379,6737.337,91.726,361.515,356.889,0.0
55300.0,STARLINK-5308,PAYLOAD,2023-02-17 20:51:53,15.69915239,0.0003139,70.001,346.4232,268.8516,91.232,2.2836e-05,2.533e-05,0.0,0 STARLINK-5308,1 55300U 23010AH  23048.86936352  .00002533  00000-0  22836-4 0  9996,2 55300  70.0010 346.4232 0003139 268.8516  91.2320 15.69915239  5113,6737.276,91.725,361.256,357.027,0.0
55300.0,STARLINK-5308,PAYLOAD,2023-02-17 22:23:37,15.69922831,0.0002969,70.0011,346.244,271.5811,88.5045,3.9443e-05,4.532e-05,0.0,0 STARLINK-5308,1 55300U 23010AH  23048.93307786  .00004532  00000-0  39443-4 0  9990,2 55300  70.0011 346.2440 0002969 271.5811  88.5045 15.69922831  5436,6737.255,91.724,361.12,357.119,0.0
55300.0,STARLINK-5308,PAYLOAD,2023-02-18 06:02:23,15.69934432,0.0003369,70.0013,345.3482,278.5765,81.5049,8.5247e-05,0.00010054,0.0,0 STARLINK-5308,1 55300U 23010AH  23049.25165793  .00010054  00000-0  85247-4 0  9995,2 55300  70.0013 345.3482 0003369 278.5765  81.5049 15.69934432  5172,6737.222,91.724,361.356,356.817,0.0
55300.0,STARLINK-5308,PAYLOAD,2023-02-18 10:37:38,15.6995024,0.00034,70.0013,344.8108,277.5856,82.4954,0.00015764,0.00018805,0.0,0 STARLINK-5308,1 55300U 23010AH  23049.44280357  .00018805  00000-0  15764-3 0  9998,2 55300  70.0013 344.8108 0003400 277.5856  82.4954 15.69950240  5201,6737.176,91.723,361.332,356.751,0.0
55300.0,STARLINK-5308,PAYLOAD,2023-02-18 13:41:08,15.69963409,0.0003527,70.0014,344.4526,278.9932,81.0864,0.00020616,0.0002469,0.0,0 STARLINK-5308,1 55300U 23010AH  23049.57023262  .00024690  00000-0  20616-3 0  9993,2 55300  70.0014 344.4526 0003527 278.9932  81.0864 15.69963409  5534,6737.139,91.722,361.38,356.627,0.0
55300.0,STARLINK-5308,PAYLOAD,2023-02-18 21:19:54,15.69929178,0.0003517,70.0013,343.5569,278.5884,81.4913,-1.9955e-05,-2.612e-05,0.0,0 STARLINK-5308,1 55300U 23010AH  23049.88882001 -.00002612  00000-0 -19955-4 0  9998,2 55300  70.0013 343.5569 0003517 278.5884  81.4913 15.69929178  5276,6737.237,91.724,361.471,356.732,0.0
55300.0,STARLINK-5308,PAYLOAD,2023-02-19 04:58:39,15.69948589,0.0003401,70.0016,342.661,275.6386,84.4422,0.00024934,0.00029906,0.0,0 STARLINK-5308,1 55300U 23010AH  23050.20740074  .00029906  00000-0  24934-3 0  9994,2 55300  70.0016 342.6610 0003401 275.6386  84.4422 15.69948589  5324,6737.181,91.723,361.337,356.755,0.0
55300.0,STARLINK-5308,PAYLOAD,2023-02-19 12:37:25,15.69908771,0.0003616,70.0017,341.7652,269.7906,90.2875,0.0002496,0.00029889,0.0,0 STARLINK-5308,1 55300U 23010AH  23050.52599055  .00029889  00000-0  24960-3 0  9999,2 55300  70.0017 341.7652 0003616 269.7906  90.2875 15.69908771  5686,6737.295,91.725,361.596,356.724,0.0
55300.0,STARLINK-5308,PAYLOAD,2023-02-19 15:40:55,15.69928829,0.0003511,70.0016,341.4076,269.0455,91.0338,0.00027278,0.00032722,0.0,0 STARLINK-5308,1 55300U 23010AH  23050.65342478  .00032722  00000-0  27278-3 0  9993,2 55300  70.0016 341.4076 0003511 269.0455  91.0338 15.69928829  5395,6737.238,91.724,361.468,356.737,0.0
55300.0,STARLINK-5308,PAYLOAD,2023-02-20 08:30:12,15.69948749,0.0003592,70.0017,339.4366,270.8978,89.1806,0.00048817,0.00058962,0.0,0 STARLINK-5308,1 55300U 23010AH  23051.35430811  .00058962  00000-0  48817-3 0  9996,2 55300  70.0017 339.4366 0003592 270.8978  89.1806 15.69948749  5508,6737.181,91.723,361.466,356.626,0.0
55300.0,STARLINK-5308,PAYLOAD,2023-02-20 13:05:27,15.69924854,0.0003653,70.0016,338.8993,267.9252,92.1526,0.00036608,0.0004404,0.0,0 STARLINK-5308,1 55300U 23010AH  23051.54546002  .00044040  00000-0  36608-3 0  9994,2 55300  70.0016 338.8993 0003653 267.9252  92.1526 15.69924854  5533,6737.249,91.724,361.575,356.653,0.0
55300.0,STARLINK-5308,PAYLOAD,2023-02-20 23:47:43,15.69940374,0.0003619,70.0015,337.6453,262.7327,97.3458,0.00061993,0.00075052,0.0,0 STARLINK-5308,1 55300U 23010AH  23051.99147876  .00075052  00000-0  61993-3 0  9991,2 55300  70.0015 337.6453 0003619 262.7327  97.3458 15.69940374  5602,6737.205,91.723,361.508,356.631,0.0
55300.0,STARLINK-5308,PAYLOAD,2023-02-21 13:33:29,15.69931587,0.0003605,70.0014,336.0336,266.2861,93.7922,7.7995e-05,9.179e-05,0.0,0 STARLINK-5308,1 55300U 23010AH  23052.56492627  .00009179  00000-0  77995-4 0  9999,2 55300  70.0014 336.0336 0003605 266.2861  93.7922 15.69931587  5692,6737.23,91.724,361.523,356.666,0.0
55300.0,STARLINK-5308,PAYLOAD,2023-02-21 21:12:15,15.69948438,0.0003643,70.0012,335.1382,268.277,91.8009,0.00021592,0.00025857,0.0,0 STARLINK-5308,1 55300U 23010AH  23052.88350750  .00025857  00000-0  21592-3 0  9996,2 55300  70.0012 335.1382 0003643 268.2770  91.8009 15.69948438  6053,6737.182,91.723,361.501,356.592,0.0
55300.0,STARLINK-5308,PAYLOAD,2023-02-22 03:19:15,15.69968724,0.0003562,70.0011,334.4215,269.4777,90.601,0.00039134,0.00047197,0.0,0 STARLINK-5308,1 55300U 23010AH  23053.13837058  .00047197  00000-0  39134-3 0  9998,2 55300  70.0011 334.4215 0003562 269.4777  90.6010 15.69968724  5787,6737.123,91.722,361.388,356.589,0.0
55300.0,STARLINK-5308,PAYLOAD,2023-02-22 06:22:46,15.69904492,0.0003154,70.001,334.0626,281.32,78.7642,0.00014011,0.00016654,0.0,0 STARLINK-5308,1 55300U 23010AH  23053.26581274  .00016654  00000-0  14011-3 0  9999,2 55300  70.0010 334.0626 0003154 281.3200  78.7642 15.69904492  5802,6737.307,91.725,361.297,357.047,0.0
55300.0,STARLINK-5308,PAYLOAD,2023-02-22 21:40:17,15.69956903,0.0003495,70.0006,332.2713,273.9235,86.1561,0.00054885,0.00066398,0.0,0 STARLINK-5308,1 55300U 23010AH  23053.90297896  .00066398  00000-0  54885-3 0  9997,2 55300  70.0006 332.2713 0003495 273.9235  86.1561 15.69956903  6210,6737.157,91.722,361.377,356.668,0.0
55300.0,STARLINK-5308,PAYLOAD,2023-02-23 06:50:48,15.69929979,0.0002255,70.0006,331.1965,277.7491,82.3448,0.0005338,0.00064473,0.0,0 STARLINK-5308,1 55300U 23010AH  23054.28528045  .00064473  00000-0  53380-3 0  9993,2 55300  70.0006 331.1965 0002255 277.7491  82.3448 15.69929979  5962,6737.234,91.724,360.619,357.58,0.0
55300.0,STARLINK-5308,PAYLOAD,2023-02-23 20:36:34,15.69932762,0.0003391,70.0004,329.5849,276.9856,83.0954,0.00018094,0.00021608,0.0,0 STARLINK-5308,1 55300U 23010AH  23054.85872885  .00021608  00000-0  18094-3 0  9996,2 55300  70.0004 329.5849 0003391 276.9856  83.0954 15.69932762  6055,6737.226,91.724,361.376,356.807,0.0
55300.0,STARLINK-5308,PAYLOAD,2023-02-24 05:47:04,15.69940229,0.0003104,70.0001,328.5089,277.2607,82.8236,0.00017906,0.00021386,0.0,0 STARLINK-5308,1 55300U 23010AH  23055.24102873  .00021386  00000-0  17906-3 0  9997,2 55300  70.0001 328.5089 0003104 277.2607  82.8236 15.69940229  6425,6737.205,91.723,361.161,356.979,0.0
